[{"OBJECT_NAME":"STARLINK-31869","OBJECT_ID":"2024-124P","EPOCH":"2026-03-09T22:18:35.186688","MEAN_MOTION":15.30191856,"ECCENTRICITY":6.525e-5,"INCLINATION":53.1603,"RA_OF_ASC_NODE":321.2975,"ARG_OF_PERICENTER":96.6584,"MEAN_ANOMALY":263.4491,"EPHEMERIS_TYPE":0,"CLASSIFICATION_TYPE":"U","NORAD_CAT_ID":60196,"ELEMENT_SET_NO":999,"REV_AT_EPOCH":9433,"BSTAR":1.9803964e-5,"MEAN_MOTION_DOT":2.28e-6,"MEAN_MOTION_DDOT":0},{"OBJECT_NAME":"CZ-2C DEB","OBJECT_ID":"2018-056F","EPOCH":"2026-03-09T10:57:26.102304","MEAN_MOTION":15.27739248,"ECCENTRICITY":0.00119172,"INCLINATION":98.1188,"RA_OF_ASC_NODE":250.032,"ARG_OF_PERICENTER":4.6998,"MEAN_ANOMALY":355.4349,"EPHEMERIS_TYPE":0,"CLASSIFICATION_TYPE":"U","NORAD_CAT_ID":43534,"ELEMENT_SET_NO":999,"REV_AT_EPOCH":41855,"BSTAR":0.00085537155,"MEAN_MOTION_DOT":0.00023193,"MEAN_MOTION_DDOT":0}]
